CCSDS_OMM_VERS = 2.0
CREATION_DATE  = 
ORIGINATOR     = 

OBJECT_NAME    = STARLINK-35605
OBJECT_ID      = 2025-240E
CENTER_NAME    = EARTH
REF_FRAME      = TEME
TIME_SYSTEM    = UTC
MEAN_ELEMENT_THEORY = SGP/SGP4

EPOCH          = 2025-11-18T04:09:47.951424
MEAN_MOTION    = 15.49336965
ECCENTRICITY   = .0001275
INCLINATION    = 53.1598
RA_OF_ASC_NODE = 222.2926
ARG_OF_PERICENTER = 105.3248
MEAN_ANOMALY   = 254.7901

EPHEMERIS_TYPE = 0
CLASSIFICATION_TYPE = U
NORAD_CAT_ID   = 66150
ELEMENT_SET_NO = 999
REV_AT_EPOCH   = 489
BSTAR          = .14611E-2
MEAN_MOTION_DOT = .81749E-3
MEAN_MOTION_DDOT = 0

CCSDS_OMM_VERS = 2.0
CREATION_DATE  = 
ORIGINATOR     = 

OBJECT_NAME    = STARLINK-35540
OBJECT_ID      = 2025-240F
CENTER_NAME    = EARTH
REF_FRAME      = TEME
TIME_SYSTEM    = UTC
MEAN_ELEMENT_THEORY = SGP/SGP4

EPOCH          = 2025-11-18T05:42:11.586240
MEAN_MOTION    = 15.49341470
ECCENTRICITY   = .0000799
INCLINATION    = 53.1597
RA_OF_ASC_NODE = 221.9808
ARG_OF_PERICENTER = 87.2864
MEAN_ANOMALY   = 272.8236

EPHEMERIS_TYPE = 0
CLASSIFICATION_TYPE = U
NORAD_CAT_ID   = 66151
ELEMENT_SET_NO = 999
REV_AT_EPOCH   = 490
BSTAR          = .14291E-2
MEAN_MOTION_DOT = .79942E-3
MEAN_MOTION_DDOT = 0

CCSDS_OMM_VERS = 2.0
CREATION_DATE  = 
ORIGINATOR     = 

OBJECT_NAME    = STARLINK-35455
OBJECT_ID      = 2025-240G
CENTER_NAME    = EARTH
REF_FRAME      = TEME
TIME_SYSTEM    = UTC
MEAN_ELEMENT_THEORY = SGP/SGP4

EPOCH          = 2025-11-18T12:00:02.000160
MEAN_MOTION    = 15.39593734
ECCENTRICITY   = .0001602
INCLINATION    = 53.1604
RA_OF_ASC_NODE = 220.8851
ARG_OF_PERICENTER = 111.0764
MEAN_ANOMALY   = 193.5878

EPHEMERIS_TYPE = 0
CLASSIFICATION_TYPE = U
NORAD_CAT_ID   = 66152
ELEMENT_SET_NO = 999
REV_AT_EPOCH   = 500
BSTAR          = .12895E-2
MEAN_MOTION_DOT = .51484E-3
MEAN_MOTION_DDOT = 0

CCSDS_OMM_VERS = 2.0
CREATION_DATE  = 
ORIGINATOR     = 

OBJECT_NAME    = STARLINK-34752
OBJECT_ID      = 2025-240H
CENTER_NAME    = EARTH
REF_FRAME      = TEME
TIME_SYSTEM    = UTC
MEAN_ELEMENT_THEORY = SGP/SGP4

EPOCH          = 2025-11-18T12:00:02.000160
MEAN_MOTION    = 15.44134877
ECCENTRICITY   = .0001027
INCLINATION    = 53.1592
RA_OF_ASC_NODE = 220.7413
ARG_OF_PERICENTER = 107.6644
MEAN_ANOMALY   = 269.8895

EPHEMERIS_TYPE = 0
CLASSIFICATION_TYPE = U
NORAD_CAT_ID   = 66153
ELEMENT_SET_NO = 999
REV_AT_EPOCH   = 500
BSTAR          = -.49772E-1
MEAN_MOTION_DOT = -.2057199E-1
MEAN_MOTION_DDOT = 0

CCSDS_OMM_VERS = 2.0
CREATION_DATE  = 
ORIGINATOR     = 

OBJECT_NAME    = STARLINK-34625
OBJECT_ID      = 2025-240J
CENTER_NAME    = EARTH
REF_FRAME      = TEME
TIME_SYSTEM    = UTC
MEAN_ELEMENT_THEORY = SGP/SGP4

EPOCH          = 2025-11-18T05:40:42.634848
MEAN_MOTION    = 15.49334657
ECCENTRICITY   = .0001272
INCLINATION    = 53.1599
RA_OF_ASC_NODE = 221.9748
ARG_OF_PERICENTER = 94.3692
MEAN_ANOMALY   = 265.7462

EPHEMERIS_TYPE = 0
CLASSIFICATION_TYPE = U
NORAD_CAT_ID   = 66154
ELEMENT_SET_NO = 999
REV_AT_EPOCH   = 495
BSTAR          = .80491E-3
MEAN_MOTION_DOT = .44614E-3
MEAN_MOTION_DDOT = 0

CCSDS_OMM_VERS = 2.0
CREATION_DATE  = 
ORIGINATOR     = 

OBJECT_NAME    = STARLINK-35580
OBJECT_ID      = 2025-240K
CENTER_NAME    = EARTH
REF_FRAME      = TEME
TIME_SYSTEM    = UTC
MEAN_ELEMENT_THEORY = SGP/SGP4

EPOCH          = 2025-11-18T05:40:13.100736
MEAN_MOTION    = 15.49327758
ECCENTRICITY   = .0001451
INCLINATION    = 53.1599
RA_OF_ASC_NODE = 221.9713
ARG_OF_PERICENTER = 97.9925
MEAN_ANOMALY   = 262.1249

EPHEMERIS_TYPE = 0
CLASSIFICATION_TYPE = U
NORAD_CAT_ID   = 66155
ELEMENT_SET_NO = 999
REV_AT_EPOCH   = 490
BSTAR          = .9835E-3
MEAN_MOTION_DOT = .5467E-3
MEAN_MOTION_DDOT = 0

CCSDS_OMM_VERS = 2.0
CREATION_DATE  = 
ORIGINATOR     = 

OBJECT_NAME    = STARLINK-35621
OBJECT_ID      = 2025-240L
CENTER_NAME    = EARTH
REF_FRAME      = TEME
TIME_SYSTEM    = UTC
MEAN_ELEMENT_THEORY = SGP/SGP4

EPOCH          = 2025-11-18T05:39:58.000608
MEAN_MOTION    = 15.48399334
ECCENTRICITY   = .0002276
INCLINATION    = 53.1597
RA_OF_ASC_NODE = 221.9707
ARG_OF_PERICENTER = 62.9971
MEAN_ANOMALY   = 297.1270

EPHEMERIS_TYPE = 0
CLASSIFICATION_TYPE = U
NORAD_CAT_ID   = 66156
ELEMENT_SET_NO = 999
REV_AT_EPOCH   = 490
BSTAR          = -.67223E-2
MEAN_MOTION_DOT = -.346987E-2
MEAN_MOTION_DDOT = 0

CCSDS_OMM_VERS = 2.0
CREATION_DATE  = 
ORIGINATOR     = 

OBJECT_NAME    = STARLINK-35594
OBJECT_ID      = 2025-240M
CENTER_NAME    = EARTH
REF_FRAME      = TEME
TIME_SYSTEM    = UTC
MEAN_ELEMENT_THEORY = SGP/SGP4

EPOCH          = 2025-11-18T05:39:15.204096
MEAN_MOTION    = 15.49316334
ECCENTRICITY   = .0001337
INCLINATION    = 53.1598
RA_OF_ASC_NODE = 221.9670
ARG_OF_PERICENTER = 87.3317
MEAN_ANOMALY   = 272.7845

EPHEMERIS_TYPE = 0
CLASSIFICATION_TYPE = U
NORAD_CAT_ID   = 66157
ELEMENT_SET_NO = 999
REV_AT_EPOCH   = 490
BSTAR          = .972E-3
MEAN_MOTION_DOT = .53999E-3
MEAN_MOTION_DDOT = 0

CCSDS_OMM_VERS = 2.0
CREATION_DATE  = 
ORIGINATOR     = 

OBJECT_NAME    = STARLINK-35587
OBJECT_ID      = 2025-240N
CENTER_NAME    = EARTH
REF_FRAME      = TEME
TIME_SYSTEM    = UTC
MEAN_ELEMENT_THEORY = SGP/SGP4

EPOCH          = 2025-11-18T12:00:02.000160
MEAN_MOTION    = 15.39580350
ECCENTRICITY   = .0000696
INCLINATION    = 53.1601
RA_OF_ASC_NODE = 220.8248
ARG_OF_PERICENTER = 97.9374
MEAN_ANOMALY   = 236.2000

EPHEMERIS_TYPE = 0
CLASSIFICATION_TYPE = U
NORAD_CAT_ID   = 66158
ELEMENT_SET_NO = 999
REV_AT_EPOCH   = 500
BSTAR          = .15171E-2
MEAN_MOTION_DOT = .60689E-3
MEAN_MOTION_DDOT = 0

CCSDS_OMM_VERS = 2.0
CREATION_DATE  = 
ORIGINATOR     = 

OBJECT_NAME    = STARLINK-35586
OBJECT_ID      = 2025-240P
CENTER_NAME    = EARTH
REF_FRAME      = TEME
TIME_SYSTEM    = UTC
MEAN_ELEMENT_THEORY = SGP/SGP4

EPOCH          = 2025-11-18T05:38:14.324064
MEAN_MOTION    = 15.49329882
ECCENTRICITY   = .0001138
INCLINATION    = 53.1597
RA_OF_ASC_NODE = 221.9625
ARG_OF_PERICENTER = 92.8036
MEAN_ANOMALY   = 267.3104

EPHEMERIS_TYPE = 0
CLASSIFICATION_TYPE = U
NORAD_CAT_ID   = 66159
ELEMENT_SET_NO = 999
REV_AT_EPOCH   = 490
BSTAR          = .91213E-3
MEAN_MOTION_DOT = .50647E-3
MEAN_MOTION_DDOT = 0

CCSDS_OMM_VERS = 2.0
CREATION_DATE  = 
ORIGINATOR     = 

OBJECT_NAME    = STARLINK-35636
OBJECT_ID      = 2025-240Q
CENTER_NAME    = EARTH
REF_FRAME      = TEME
TIME_SYSTEM    = UTC
MEAN_ELEMENT_THEORY = SGP/SGP4

EPOCH          = 2025-11-18T12:00:02.000160
MEAN_MOTION    = 15.39589293
ECCENTRICITY   = .0001548
INCLINATION    = 53.1601
RA_OF_ASC_NODE = 220.8277
ARG_OF_PERICENTER = 98.8655
MEAN_ANOMALY   = 233.3936

EPHEMERIS_TYPE = 0
CLASSIFICATION_TYPE = U
NORAD_CAT_ID   = 66160
ELEMENT_SET_NO = 999
REV_AT_EPOCH   = 500
BSTAR          = .1314E-2
MEAN_MOTION_DOT = .5247E-3
MEAN_MOTION_DDOT = 0

CCSDS_OMM_VERS = 2.0
CREATION_DATE  = 
ORIGINATOR     = 

OBJECT_NAME    = STARLINK-35635
OBJECT_ID      = 2025-240R
CENTER_NAME    = EARTH
REF_FRAME      = TEME
TIME_SYSTEM    = UTC
MEAN_ELEMENT_THEORY = SGP/SGP4

EPOCH          = 2025-11-18T12:00:02.000160
MEAN_MOTION    = 15.39590356
ECCENTRICITY   = .0001647
INCLINATION    = 53.1604
RA_OF_ASC_NODE = 220.8784
ARG_OF_PERICENTER = 98.9567
MEAN_ANOMALY   = 207.5551

EPHEMERIS_TYPE = 0
CLASSIFICATION_TYPE = U
NORAD_CAT_ID   = 66161
ELEMENT_SET_NO = 999
REV_AT_EPOCH   = 500
BSTAR          = .12331E-2
MEAN_MOTION_DOT = .49194E-3
MEAN_MOTION_DDOT = 0

