STARLINK-35605          
1 66150U 25240E   25322.17347166  .00081749  00000+0  14611-2 0  9993
2 66150  53.1598 222.2926 0001275 105.3248 254.7901 15.49336965  4894
STARLINK-35540          
1 66151U 25240F   25322.23763410  .00079942  00000+0  14291-2 0  9991
2 66151  53.1597 221.9808 0000799  87.2864 272.8236 15.49341470  4902
STARLINK-35455          
1 66152U 25240G   25322.50002315  .00051484  00000+0  12895-2 0  9991
2 66152  53.1604 220.8851 0001602 111.0764 193.5878 15.39593734  5001
STARLINK-34752          
1 66153U 25240H   25322.50002315 -.02057199  00000+0 -49772-1 0  9998
2 66153  53.1592 220.7413 0001027 107.6644 269.8895 15.44134877  5001
STARLINK-34625          
1 66154U 25240J   25322.23660457  .00044614  00000+0  80491-3 0  9995
2 66154  53.1599 221.9748 0001272  94.3692 265.7462 15.49334657  4951
STARLINK-35580          
1 66155U 25240K   25322.23626274  .00054670  00000+0  98350-3 0  9991
2 66155  53.1599 221.9713 0001451  97.9925 262.1249 15.49327758  4904
STARLINK-35621          
1 66156U 25240L   25322.23608797 -.00346987  00000+0 -67223-2 0  9993
2 66156  53.1597 221.9707 0002276  62.9971 297.1270 15.48399334  4905
STARLINK-35594          
1 66157U 25240M   25322.23559264  .00053999  00000+0  97200-3 0  9993
2 66157  53.1598 221.9670 0001337  87.3317 272.7845 15.49316334  4905
STARLINK-35587          
1 66158U 25240N   25322.50002315  .00060689  00000+0  15171-2 0  9994
2 66158  53.1601 220.8248 0000696  97.9374 236.2000 15.39580350  5007
STARLINK-35586          
1 66159U 25240P   25322.23488801  .00050647  00000+0  91213-3 0  9998
2 66159  53.1597 221.9625 0001138  92.8036 267.3104 15.49329882  4904
STARLINK-35636          
1 66160U 25240Q   25322.50002315  .00052470  00000+0  13140-2 0  9990
2 66160  53.1601 220.8277 0001548  98.8655 233.3936 15.39589293  5002
STARLINK-35635          
1 66161U 25240R   25322.50002315  .00049194  00000+0  12331-2 0  9991
2 66161  53.1604 220.8784 0001647  98.9567 207.5551 15.39590356  5000
